2024-125C               
1 60205U 24125C   26068.59329585  .00241230  00000+0  10633-2 0  9991
2 60205  97.2296 291.0595 0005226 185.1229 174.9989 15.83873438 94510
STARLINK-36784          
1 67877U 26034AD  26068.83781934  .00349938  00000+0  16967-2 0  9991
2 67877  53.1597 210.3735 0001443  47.5017 312.6127 15.80986555  3966
