[{"OBJECT_NAME":"OBJECT C","OBJECT_ID":"2024-125C","EPOCH":"2026-03-09T14:14:20.761440","MEAN_MOTION":15.83873438,"ECCENTRICITY":0.0005226,"INCLINATION":97.2296,"RA_OF_ASC_NODE":291.0595,"ARG_OF_PERICENTER":185.1229,"MEAN_ANOMALY":174.9989,"EPHEMERIS_TYPE":0,"CLASSIFICATION_TYPE":"U","NORAD_CAT_ID":60205,"ELEMENT_SET_NO":999,"REV_AT_EPOCH":9451,"BSTAR":0.0010633,"MEAN_MOTION_DOT":0.0024123,"MEAN_MOTION_DDOT":0},{"OBJECT_NAME":"STARLINK-36784","OBJECT_ID":"2026-034AD","EPOCH":"2026-03-09T20:06:27.591840","MEAN_MOTION":15.80986555,"ECCENTRICITY":0.00014432,"INCLINATION":53.1597,"RA_OF_ASC_NODE":210.3735,"ARG_OF_PERICENTER":47.5017,"MEAN_ANOMALY":312.6127,"EPHEMERIS_TYPE":0,"CLASSIFICATION_TYPE":"U","NORAD_CAT_ID":67877,"ELEMENT_SET_NO":999,"REV_AT_EPOCH":396,"BSTAR":0.0016967446,"MEAN_MOTION_DOT":0.00349938,"MEAN_MOTION_DDOT":0}]
